CAPELLA-11 (ACADIA-1)   
1 57693U 23126A   26192.95697390  .00002295  00000+0  29447-3 0  9998
2 57693  53.0124  77.3551 0002531 139.8162 220.3005 14.84836023155806
CAPELLA-14 (ACADIA-4)   
1 59444U 24066C   26191.40113345  .00008048  00000+0  51362-3 0  9993
2 59444  45.6019 133.0062 0000256 292.3900  67.6958 15.09192985115991
CAPELLA-13 (ACADIA-3)   
1 60419U 24142A   26193.49411198  .00002236  00000+0  26907-3 0  9990
2 60419  53.0058 307.1029 0001316  90.8880 269.2251 14.87647599104179
CAPELLA-15 (ACADIA-5)   
1 60544U 24149CE  26193.26428250  .00001941  00000+0  19497-3 0  9996
2 60544  97.6768 265.5399 0003805 352.3524   7.7636 14.92404893103594
CAPELLA-17 (ACADIA-7)   
1 64583U 25135BH  26192.82540972  .00003043  00000+0  30871-3 0  9990
2 64583  97.7704 306.0834 0003964 264.8386  95.2380 14.91599654 57524
CAPELLA-16 (ACADIA-6)   
1 65318U 25188D   26192.80547547  .00003369  00000+0  32109-3 0  9995
2 65318  97.7377 267.5879 0005465 145.6698 214.4876 14.94024784 47598
CAPELLA-19 (ACADIA-9)   
1 67384U 26004X   26193.43901789  .00002573  00000+0  29585-3 0  9990
2 67384  97.7978 191.3637 0001643  91.1646 268.9758 14.86648598 27023
CAPELLA-18 (ACADIA-8)   
1 67385U 26004Y   26193.51636981  .00000635  00000+0  77558-4 0  9990
2 67385  97.8018 191.5847 0001502  82.5047 277.6339 14.86636331 27044
CAPELLA-20 (ACADIA-10)  
1 68485U 26067BX  26193.44824777  .00003326  00000+0  33634-3 0  9991
2 68485  97.7585 151.3410 0000813 143.5184 216.6090 14.91667029 15495
