{"fetched_at":"2026-07-12T17:32:35.831Z","source":"https://celestrak.org/NORAD/elements/gp.php?NAME=CAPELLA&FORMAT=JSON","constellation":"capella","records":[{"OBJECT_NAME":"CAPELLA-11 (ACADIA-1)","OBJECT_ID":"2023-126A","EPOCH":"2026-07-11T22:58:02.544960","CLASSIFICATION_TYPE":"U","MEAN_MOTION":14.84836023,"ECCENTRICITY":0.0002531,"INCLINATION":53.0124,"RA_OF_ASC_NODE":77.3551,"ARG_OF_PERICENTER":139.8162,"MEAN_ANOMALY":220.3005,"EPHEMERIS_TYPE":0,"NORAD_CAT_ID":57693,"ELEMENT_SET_NO":999,"REV_AT_EPOCH":15580,"BSTAR":0.00029447,"MEAN_MOTION_DOT":0.00002295,"MEAN_MOTION_DDOT":0},{"OBJECT_NAME":"CAPELLA-14 (ACADIA-4)","OBJECT_ID":"2024-066C","EPOCH":"2026-07-10T09:37:37.930080","CLASSIFICATION_TYPE":"U","MEAN_MOTION":15.09192985,"ECCENTRICITY":0.00002568,"INCLINATION":45.6019,"RA_OF_ASC_NODE":133.0062,"ARG_OF_PERICENTER":292.39,"MEAN_ANOMALY":67.6958,"EPHEMERIS_TYPE":0,"NORAD_CAT_ID":59444,"ELEMENT_SET_NO":999,"REV_AT_EPOCH":11599,"BSTAR":0.00051362493,"MEAN_MOTION_DOT":0.00008048,"MEAN_MOTION_DDOT":0},{"OBJECT_NAME":"CAPELLA-13 (ACADIA-3)","OBJECT_ID":"2024-142A","EPOCH":"2026-07-12T11:51:31.275072","CLASSIFICATION_TYPE":"U","MEAN_MOTION":14.87647599,"ECCENTRICITY":0.0001316,"INCLINATION":53.0058,"RA_OF_ASC_NODE":307.1029,"ARG_OF_PERICENTER":90.888,"MEAN_ANOMALY":269.2251,"EPHEMERIS_TYPE":0,"NORAD_CAT_ID":60419,"ELEMENT_SET_NO":999,"REV_AT_EPOCH":10417,"BSTAR":0.00026907,"MEAN_MOTION_DOT":0.00002236,"MEAN_MOTION_DDOT":0},{"OBJECT_NAME":"CAPELLA-15 (ACADIA-5)","OBJECT_ID":"2024-149CE","EPOCH":"2026-07-12T06:20:34.008000","CLASSIFICATION_TYPE":"U","MEAN_MOTION":14.92404893,"ECCENTRICITY":0.0003805,"INCLINATION":97.6768,"RA_OF_ASC_NODE":265.5399,"ARG_OF_PERICENTER":352.3524,"MEAN_ANOMALY":7.7636,"EPHEMERIS_TYPE":0,"NORAD_CAT_ID":60544,"ELEMENT_SET_NO":999,"REV_AT_EPOCH":10359,"BSTAR":0.00019497,"MEAN_MOTION_DOT":0.00001941,"MEAN_MOTION_DDOT":0},{"OBJECT_NAME":"CAPELLA-17 (ACADIA-7)","OBJECT_ID":"2025-135BH","EPOCH":"2026-07-11T19:48:35.399808","CLASSIFICATION_TYPE":"U","MEAN_MOTION":14.91599654,"ECCENTRICITY":0.00039646,"INCLINATION":97.7704,"RA_OF_ASC_NODE":306.0834,"ARG_OF_PERICENTER":264.8386,"MEAN_ANOMALY":95.238,"EPHEMERIS_TYPE":0,"NORAD_CAT_ID":64583,"ELEMENT_SET_NO":999,"REV_AT_EPOCH":5752,"BSTAR":0.00030871222,"MEAN_MOTION_DOT":0.00003043,"MEAN_MOTION_DDOT":0},{"OBJECT_NAME":"CAPELLA-16 (ACADIA-6)","OBJECT_ID":"2025-188D","EPOCH":"2026-07-11T19:19:53.080608","CLASSIFICATION_TYPE":"U","MEAN_MOTION":14.94024784,"ECCENTRICITY":0.00054654,"INCLINATION":97.7377,"RA_OF_ASC_NODE":267.5879,"ARG_OF_PERICENTER":145.6698,"MEAN_ANOMALY":214.4876,"EPHEMERIS_TYPE":0,"NORAD_CAT_ID":65318,"ELEMENT_SET_NO":999,"REV_AT_EPOCH":4759,"BSTAR":0.00032109305,"MEAN_MOTION_DOT":0.00003369,"MEAN_MOTION_DDOT":0},{"OBJECT_NAME":"CAPELLA-19 (ACADIA-9)","OBJECT_ID":"2026-004X","EPOCH":"2026-07-12T10:32:11.145696","CLASSIFICATION_TYPE":"U","MEAN_MOTION":14.86648598,"ECCENTRICITY":0.0001643,"INCLINATION":97.7978,"RA_OF_ASC_NODE":191.3637,"ARG_OF_PERICENTER":91.1646,"MEAN_ANOMALY":268.9758,"EPHEMERIS_TYPE":0,"NORAD_CAT_ID":67384,"ELEMENT_SET_NO":999,"REV_AT_EPOCH":2702,"BSTAR":0.00029585,"MEAN_MOTION_DOT":0.00002573,"MEAN_MOTION_DDOT":0},{"OBJECT_NAME":"CAPELLA-18 (ACADIA-8)","OBJECT_ID":"2026-004Y","EPOCH":"2026-07-12T12:23:34.351584","CLASSIFICATION_TYPE":"U","MEAN_MOTION":14.86636331,"ECCENTRICITY":0.0001502,"INCLINATION":97.8018,"RA_OF_ASC_NODE":191.5847,"ARG_OF_PERICENTER":82.5047,"MEAN_ANOMALY":277.6339,"EPHEMERIS_TYPE":0,"NORAD_CAT_ID":67385,"ELEMENT_SET_NO":999,"REV_AT_EPOCH":2704,"BSTAR":0.000077558,"MEAN_MOTION_DOT":0.00000635,"MEAN_MOTION_DDOT":0},{"OBJECT_NAME":"CAPELLA-20 (ACADIA-10)","OBJECT_ID":"2026-067BX","EPOCH":"2026-07-12T10:45:28.607328","CLASSIFICATION_TYPE":"U","MEAN_MOTION":14.91667029,"ECCENTRICITY":0.0000813,"INCLINATION":97.7585,"RA_OF_ASC_NODE":151.341,"ARG_OF_PERICENTER":143.5184,"MEAN_ANOMALY":216.609,"EPHEMERIS_TYPE":0,"NORAD_CAT_ID":68485,"ELEMENT_SET_NO":999,"REV_AT_EPOCH":1549,"BSTAR":0.00033634,"MEAN_MOTION_DOT":0.00003326,"MEAN_MOTION_DDOT":0}]}
